{
    "type": "FeatureCollection",
    "features": [
        {
            "type": "Feature",
            "geometry": {
                "type": "Polygon",
                "coordinates": [
                    [
                        [
                            106.8083046,
                            -6.1659639
                        ],
                        [
                            106.8083529,
                            -6.1668759
                        ],
                        [
                            106.8083127,
                            -6.1670279
                        ],
                        [
                            106.80831,
                            -6.1671639
                        ],
                        [
                            106.8098979,
                            -6.1670599
                        ],
                        [
                            106.8103967,
                            -6.1670519
                        ],
                        [
                            106.8102895,
                            -6.1658199
                        ],
                        [
                            106.8083046,
                            -6.1659639
                        ]
                    ],
                    [
                        [
                            106.6262893,
                            -6.085345,
                            0
                        ],
                        [
                            106.6276625,
                            -6.392505,
                            0
                        ],
                        [
                            106.9874648,
                            -6.3890931,
                            0
                        ],
                        [
                            106.9854049,
                            -6.0819311,
                            0
                        ],
                        [
                            106.6262893,
                            -6.085345,
                            0
                        ]
                    ]
                ]
            },
            "properties": {
                "name": "PETOJO SELATAN 10, 12, 13",
                "stroke": "#424242",
                "stroke-opacity": 0,
                "stroke-width": 3,
                "fill": "#424242",
                "fill-opacity": 0.30196078431372547
            }
        }
    ]
}